[{"OBJECT_NAME":"STARLINK-1400","OBJECT_ID":"2020-035AV","EPOCH":"2026-03-09T22:42:08.377920","MEAN_MOTION":15.50591902,"ECCENTRICITY":0.00079016,"INCLINATION":53.0513,"RA_OF_ASC_NODE":21.7292,"ARG_OF_PERICENTER":96.3588,"MEAN_ANOMALY":263.832,"EPHEMERIS_TYPE":0,"CLASSIFICATION_TYPE":"U","NORAD_CAT_ID":45700,"ELEMENT_SET_NO":999,"REV_AT_EPOCH":31938,"BSTAR":0.0019068504,"MEAN_MOTION_DOT":0.00112245,"MEAN_MOTION_DDOT":0},{"OBJECT_NAME":"TITAN 4B R\/B","OBJECT_ID":"2005-016B","EPOCH":"2026-03-09T20:27:57.848832","MEAN_MOTION":15.42682045,"ECCENTRICITY":0.00616552,"INCLINATION":56.9964,"RA_OF_ASC_NODE":245.9411,"ARG_OF_PERICENTER":20.2929,"MEAN_ANOMALY":340.0555,"EPHEMERIS_TYPE":0,"CLASSIFICATION_TYPE":"U","NORAD_CAT_ID":28647,"ELEMENT_SET_NO":999,"REV_AT_EPOCH":37707,"BSTAR":0.00046483736,"MEAN_MOTION_DOT":0.0002164,"MEAN_MOTION_DDOT":0}]
